0 DELTA 1 DEB
1 07162U 73086EA  13282.73728948  .00000745  00000-0  35971-2 0  5678
2 07162 101.4963 321.3261 0102267 251.3029 221.7886 12.76043114835852
0 DELTA 1 DEB
1 07162U 73086EA  13287.10631917  .00000919  00000-0  43837-2 0  5698
2 07162 101.4956 325.7393 0103777 242.9130 131.6000 12.76050433836416
0 DELTA 1 DEB
1 07162U 73086EA  13289.57030846  .00000929  00000-0  44276-2 0  5706
2 07162 101.4952 328.2280 0104572 238.2485 290.2989 12.76055501836723
0 DELTA 1 DEB
1 07162U 73086EA  13291.60024789  .00000854  00000-0  40855-2 0  5719
2 07162 101.4951 330.2781 0105081 234.3981 255.1661 12.76059697836980
0 DELTA 1 DEB
1 07162U 73086EA  13293.71388895  .00000710  00000-0  34323-2 0  5729
2 07162 101.4951 332.4126 0105691 230.4773 244.4689 12.76062324837253
0 DELTA 1 DEB
1 07162U 73086EA  13296.05277542  .00000874  00000-0  41722-2 0  5738
2 07162 101.4951 334.7744 0106238 226.1455 188.4957 12.76067546837550
